{"4":{"name":"Afghanistan","fullname":"Islamic Republic of Afghanistan","iso_3166_2":"AF","iso_3166_3":"AFG","capital":"Kabul","citizenship":"Afghan","currency":"afghani","currency_code":"AFN","calling_code":"93"},"8":{"name":"Albania","fullname":"Republic of Albania","iso_3166_2":"AL","iso_3166_3":"ALB","capital":"Tirana","citizenship":"Albanian","currency":"lek","currency_code":"ALL","calling_code":"355"},"10":{"name":"Antarctica","fullname":"Antarctica","iso_3166_2":"AQ","iso_3166_3":"ATA","capital":"Antartica","citizenship":"of Antartica","currency":"","currency_code":"","calling_code":"672"},"12":{"name":"Algeria","fullname":"People\u2019s Democratic Republic of Algeria","iso_3166_2":"DZ","iso_3166_3":"DZA","capital":"Algiers","citizenship":"Algerian","currency":"Algerian dinar","currency_code":"DZD","calling_code":"213"},"16":{"name":"American Samoa","fullname":"Territory of American","iso_3166_2":"AS","iso_3166_3":"ASM","capital":"Pago Pago","citizenship":"American Samoan","currency":"US dollar","currency_code":"USD","calling_code":"1"},"20":{"name":"Andorra","fullname":"Principality of Andorra","iso_3166_2":"AD","iso_3166_3":"AND","capital":"Andorra la Vella","citizenship":"Andorran","currency":"euro","currency_code":"EUR","calling_code":"376"},"24":{"name":"Angola","fullname":"Republic of Angola","iso_3166_2":"AO","iso_3166_3":"AGO","capital":"Luanda","citizenship":"Angolan","currency":"kwanza","currency_code":"AOA","calling_code":"244"},"28":{"name":"Antigua and Barbuda","fullname":"Antigua and Barbuda","iso_3166_2":"AG","iso_3166_3":"ATG","capital":"St John\u2019s","citizenship":"of Antigua and Barbuda","currency":"East Caribbean dollar","currency_code":"XCD","calling_code":"1"},"31":{"name":"Azerbaijan","fullname":"Republic of Azerbaijan","iso_3166_2":"AZ","iso_3166_3":"AZE","capital":"Baku","citizenship":"Azerbaijani","currency":"Azerbaijani manat","currency_code":"AZN","calling_code":"994"},"32":{"name":"Argentina","fullname":"Argentine Republic","iso_3166_2":"AR","iso_3166_3":"ARG","capital":"Buenos Aires","citizenship":"Argentinian","currency":"Argentine peso","currency_code":"ARS","calling_code":"54"},"36":{"name":"Australia","fullname":"Commonwealth of Australia","iso_3166_2":"AU","iso_3166_3":"AUS","capital":"Canberra","citizenship":"Australian","currency":"Australian dollar","currency_code":"AUD","calling_code":"61"},"40":{"name":"Austria","fullname":"Republic of Austria","iso_3166_2":"AT","iso_3166_3":"AUT","capital":"Vienna","citizenship":"Austrian","currency":"euro","currency_code":"EUR","calling_code":"43"},"44":{"name":"Bahamas","fullname":"Commonwealth of the Bahamas","iso_3166_2":"BS","iso_3166_3":"BHS","capital":"Nassau","citizenship":"Bahamian","currency":"Bahamian dollar","currency_code":"BSD","calling_code":"1"},"48":{"name":"Bahrain","fullname":"Kingdom of Bahrain","iso_3166_2":"BH","iso_3166_3":"BHR","capital":"Manama","citizenship":"Bahraini","currency":"Bahraini dinar","currency_code":"BHD","calling_code":"973"},"50":{"name":"Bangladesh","fullname":"People\u2019s Republic of Bangladesh","iso_3166_2":"BD","iso_3166_3":"BGD","capital":"Dhaka","citizenship":"Bangladeshi","currency":"taka","currency_code":"BDT","calling_code":"880"},"51":{"name":"Armenia","fullname":"Republic of Armenia","iso_3166_2":"AM","iso_3166_3":"ARM","capital":"Yerevan","citizenship":"Armenian","currency":"dram","currency_code":"AMD","calling_code":"374"},"52":{"name":"Barbados","fullname":"Barbados","iso_3166_2":"BB","iso_3166_3":"BRB","capital":"Bridgetown","citizenship":"Barbadian","currency":"Barbados dollar","currency_code":"BBD","calling_code":"1"},"56":{"name":"Belgium","fullname":"Kingdom of Belgium","iso_3166_2":"BE","iso_3166_3":"BEL","capital":"Brussels","citizenship":"Belgian","currency":"euro","currency_code":"EUR","calling_code":"32"},"60":{"name":"Bermuda","fullname":"Bermuda","iso_3166_2":"BM","iso_3166_3":"BMU","capital":"Hamilton","citizenship":"Bermudian","currency":"Bermuda dollar","currency_code":"BMD","calling_code":"1"},"64":{"name":"Bhutan","fullname":"Kingdom of Bhutan","iso_3166_2":"BT","iso_3166_3":"BTN","capital":"Thimphu","citizenship":"Bhutanese","currency":"ngultrum","currency_code":"BTN","calling_code":"975"},"68":{"name":"Bolivia, Plurinational State of","fullname":"Plurinational State of Bolivia","iso_3166_2":"BO","iso_3166_3":"BOL","capital":"Sucre (BO1)","citizenship":"Bolivian","currency":"boliviano","currency_code":"BOB","calling_code":"591"},"70":{"name":"Bosnia and Herzegovina","fullname":"Bosnia and Herzegovina","iso_3166_2":"BA","iso_3166_3":"BIH","capital":"Sarajevo","citizenship":"of Bosnia and Herzegovina","currency":"convertible mark","currency_code":"BAM","calling_code":"387"},"72":{"name":"Botswana","fullname":"Republic of Botswana","iso_3166_2":"BW","iso_3166_3":"BWA","capital":"Gaborone","citizenship":"Botswanan","currency":"pula","currency_code":"BWP","calling_code":"267"},"74":{"name":"Bouvet Island","fullname":"Bouvet Island","iso_3166_2":"BV","iso_3166_3":"BVT","capital":"Bouvet island","citizenship":"of Bouvet island","currency":"","currency_code":"","calling_code":"47"},"76":{"name":"Brazil","fullname":"Federative Republic of Brazil","iso_3166_2":"BR","iso_3166_3":"BRA","capital":"Brasilia","citizenship":"Brazilian","currency":"real (pl. reais)","currency_code":"BRL","calling_code":"55"},"84":{"name":"Belize","fullname":"Belize","iso_3166_2":"BZ","iso_3166_3":"BLZ","capital":"Belmopan","citizenship":"Belizean","currency":"Belize dollar","currency_code":"BZD","calling_code":"501"},"86":{"name":"British Indian Ocean Territory","fullname":"British Indian Ocean Territory","iso_3166_2":"IO","iso_3166_3":"IOT","capital":"Diego Garcia","citizenship":"Changosian","currency":"US dollar","currency_code":"USD","calling_code":"246"},"90":{"name":"Solomon Islands","fullname":"Solomon Islands","iso_3166_2":"SB","iso_3166_3":"SLB","capital":"Honiara","citizenship":"Solomon Islander","currency":"Solomon Islands dollar","currency_code":"SBD","calling_code":"677"},"92":{"name":"Virgin Islands, British","fullname":"British Virgin Islands","iso_3166_2":"VG","iso_3166_3":"VGB","capital":"Road Town","citizenship":"British Virgin Islander;","currency":"US dollar","currency_code":"USD","calling_code":"1"},"96":{"name":"Brunei Darussalam","fullname":"Brunei Darussalam","iso_3166_2":"BN","iso_3166_3":"BRN","capital":"Bandar Seri Begawan","citizenship":"Bruneian","currency":"Brunei dollar","currency_code":"BND","calling_code":"673"},"100":{"name":"Bulgaria","fullname":"Republic of Bulgaria","iso_3166_2":"BG","iso_3166_3":"BGR","capital":"Sofia","citizenship":"Bulgarian","currency":"lev (pl. leva)","currency_code":"BGN","calling_code":"359"},"104":{"name":"Myanmar","fullname":"Union of Myanmar\/","iso_3166_2":"MM","iso_3166_3":"MMR","capital":"Yangon","citizenship":"Burmese","currency":"kyat","currency_code":"MMK","calling_code":"95"},"108":{"name":"Burundi","fullname":"Republic of Burundi","iso_3166_2":"BI","iso_3166_3":"BDI","capital":"Bujumbura","citizenship":"Burundian","currency":"Burundi franc","currency_code":"BIF","calling_code":"257"},"112":{"name":"Belarus","fullname":"Republic of Belarus","iso_3166_2":"BY","iso_3166_3":"BLR","capital":"Minsk","citizenship":"Belarusian","currency":"Belarusian rouble","currency_code":"BYR","calling_code":"375"},"116":{"name":"Cambodia","fullname":"Kingdom of Cambodia","iso_3166_2":"KH","iso_3166_3":"KHM","capital":"Phnom Penh","citizenship":"Cambodian","currency":"riel","currency_code":"KHR","calling_code":"855"},"120":{"name":"Cameroon","fullname":"Republic of Cameroon","iso_3166_2":"CM","iso_3166_3":"CMR","capital":"Yaound\u00e9","citizenship":"Cameroonian","currency":"CFA franc (BEAC)","currency_code":"XAF","calling_code":"237"},"124":{"name":"Canada","fullname":"Canada","iso_3166_2":"CA","iso_3166_3":"CAN","capital":"Ottawa","citizenship":"Canadian","currency":"Canadian dollar","currency_code":"CAD","calling_code":"1"},"132":{"name":"Cape Verde","fullname":"Republic of Cape Verde","iso_3166_2":"CV","iso_3166_3":"CPV","capital":"Praia","citizenship":"Cape Verdean","currency":"Cape Verde escudo","currency_code":"CVE","calling_code":"238"},"136":{"name":"Cayman Islands","fullname":"Cayman Islands","iso_3166_2":"KY","iso_3166_3":"CYM","capital":"George Town","citizenship":"Caymanian","currency":"Cayman Islands dollar","currency_code":"KYD","calling_code":"1"},"140":{"name":"Central African Republic","fullname":"Central African Republic","iso_3166_2":"CF","iso_3166_3":"CAF","capital":"Bangui","citizenship":"Central African","currency":"CFA franc (BEAC)","currency_code":"XAF","calling_code":"236"},"144":{"name":"Sri Lanka","fullname":"Democratic Socialist Republic of Sri Lanka","iso_3166_2":"LK","iso_3166_3":"LKA","capital":"Colombo","citizenship":"Sri Lankan","currency":"Sri Lankan rupee","currency_code":"LKR","calling_code":"94"},"148":{"name":"Chad","fullname":"Republic of Chad","iso_3166_2":"TD","iso_3166_3":"TCD","capital":"N\u2019Djamena","citizenship":"Chadian","currency":"CFA franc (BEAC)","currency_code":"XAF","calling_code":"235"},"152":{"name":"Chile","fullname":"Republic of Chile","iso_3166_2":"CL","iso_3166_3":"CHL","capital":"Santiago","citizenship":"Chilean","currency":"Chilean peso","currency_code":"CLP","calling_code":"56"},"156":{"name":"China","fullname":"People\u2019s Republic of China","iso_3166_2":"CN","iso_3166_3":"CHN","capital":"Beijing","citizenship":"Chinese","currency":"renminbi-yuan","currency_code":"CNY","calling_code":"86"},"158":{"name":"Taiwan, Province of China","fullname":"Republic of China, Taiwan (TW1)","iso_3166_2":"TW","iso_3166_3":"TWN","capital":"Taipei","citizenship":"Taiwanese","currency":"new Taiwan dollar","currency_code":"TWD","calling_code":"886"},"162":{"name":"Christmas Island","fullname":"Christmas Island Territory","iso_3166_2":"CX","iso_3166_3":"CXR","capital":"Flying Fish Cove","citizenship":"Christmas Islander","currency":"Australian dollar","currency_code":"AUD","calling_code":"61"},"166":{"name":"Cocos (Keeling) Islands","fullname":"Territory of Cocos (Keeling) Islands","iso_3166_2":"CC","iso_3166_3":"CCK","capital":"Bantam","citizenship":"Cocos Islander","currency":"Australian dollar","currency_code":"AUD","calling_code":"61"},"170":{"name":"Colombia","fullname":"Republic of Colombia","iso_3166_2":"CO","iso_3166_3":"COL","capital":"Santa Fe de Bogot\u00e1","citizenship":"Colombian","currency":"Colombian peso","currency_code":"COP","calling_code":"57"},"174":{"name":"Comoros","fullname":"Union of the Comoros","iso_3166_2":"KM","iso_3166_3":"COM","capital":"Moroni","citizenship":"Comorian","currency":"Comorian franc","currency_code":"KMF","calling_code":"269"},"175":{"name":"Mayotte","fullname":"Departmental Collectivity of Mayotte","iso_3166_2":"YT","iso_3166_3":"MYT","capital":"Mamoudzou","citizenship":"Mahorais","currency":"euro","currency_code":"EUR","calling_code":"262"},"178":{"name":"Congo","fullname":"Republic of the Congo","iso_3166_2":"CG","iso_3166_3":"COG","capital":"Brazzaville","citizenship":"Congolese","currency":"CFA franc (BEAC)","currency_code":"XAF","calling_code":"242"},"180":{"name":"Congo, the Democratic Republic of the","fullname":"Democratic Republic of the Congo","iso_3166_2":"CD","iso_3166_3":"COD","capital":"Kinshasa","citizenship":"Congolese","currency":"Congolese franc","currency_code":"CDF","calling_code":"243"},"184":{"name":"Cook Islands","fullname":"Cook Islands","iso_3166_2":"CK","iso_3166_3":"COK","capital":"Avarua","citizenship":"Cook Islander","currency":"New Zealand dollar","currency_code":"NZD","calling_code":"682"},"188":{"name":"Costa Rica","fullname":"Republic of Costa Rica","iso_3166_2":"CR","iso_3166_3":"CRI","capital":"San Jos\u00e9","citizenship":"Costa Rican","currency":"Costa Rican col\u00f3n (pl. colones)","currency_code":"CRC","calling_code":"506"},"191":{"name":"Croatia","fullname":"Republic of Croatia","iso_3166_2":"HR","iso_3166_3":"HRV","capital":"Zagreb","citizenship":"Croatian","currency":"kuna","currency_code":"HRK","calling_code":"385"},"192":{"name":"Cuba","fullname":"Republic of Cuba","iso_3166_2":"CU","iso_3166_3":"CUB","capital":"Havana","citizenship":"Cuban","currency":"Cuban peso","currency_code":"CUP","calling_code":"53"},"196":{"name":"Cyprus","fullname":"Republic of Cyprus","iso_3166_2":"CY","iso_3166_3":"CYP","capital":"Nicosia","citizenship":"Cypriot","currency":"euro","currency_code":"EUR","calling_code":"357"},"203":{"name":"Czech Republic","fullname":"Czech Republic","iso_3166_2":"CZ","iso_3166_3":"CZE","capital":"Prague","citizenship":"Czech","currency":"Czech koruna (pl. koruny)","currency_code":"CZK","calling_code":"420"},"204":{"name":"Benin","fullname":"Republic of Benin","iso_3166_2":"BJ","iso_3166_3":"BEN","capital":"Porto Novo (BJ1)","citizenship":"Beninese","currency":"CFA franc (BCEAO)","currency_code":"XOF","calling_code":"229"},"208":{"name":"Denmark","fullname":"Kingdom of Denmark","iso_3166_2":"DK","iso_3166_3":"DNK","capital":"Copenhagen","citizenship":"Danish","currency":"Danish krone","currency_code":"DKK","calling_code":"45"},"212":{"name":"Dominica","fullname":"Commonwealth of Dominica","iso_3166_2":"DM","iso_3166_3":"DMA","capital":"Roseau","citizenship":"Dominican","currency":"East Caribbean dollar","currency_code":"XCD","calling_code":"1"},"214":{"name":"Dominican Republic","fullname":"Dominican Republic","iso_3166_2":"DO","iso_3166_3":"DOM","capital":"Santo Domingo","citizenship":"Dominican","currency":"Dominican peso","currency_code":"DOP","calling_code":"1"},"218":{"name":"Ecuador","fullname":"Republic of Ecuador","iso_3166_2":"EC","iso_3166_3":"ECU","capital":"Quito","citizenship":"Ecuadorian","currency":"US dollar","currency_code":"USD","calling_code":"593"},"222":{"name":"El Salvador","fullname":"Republic of El Salvador","iso_3166_2":"SV","iso_3166_3":"SLV","capital":"San Salvador","citizenship":"Salvadoran","currency":"Salvadorian col\u00f3n (pl. colones)","currency_code":"SVC","calling_code":"503"},"226":{"name":"Equatorial Guinea","fullname":"Republic of Equatorial Guinea","iso_3166_2":"GQ","iso_3166_3":"GNQ","capital":"Malabo","citizenship":"Equatorial Guinean","currency":"CFA franc (BEAC)","currency_code":"XAF","calling_code":"240"},"231":{"name":"Ethiopia","fullname":"Federal Democratic Republic of Ethiopia","iso_3166_2":"ET","iso_3166_3":"ETH","capital":"Addis Ababa","citizenship":"Ethiopian","currency":"birr","currency_code":"ETB","calling_code":"251"},"232":{"name":"Eritrea","fullname":"State of Eritrea","iso_3166_2":"ER","iso_3166_3":"ERI","capital":"Asmara","citizenship":"Eritrean","currency":"nakfa","currency_code":"ERN","calling_code":"291"},"233":{"name":"Estonia","fullname":"Republic of Estonia","iso_3166_2":"EE","iso_3166_3":"EST","capital":"Tallinn","citizenship":"Estonian","currency":"euro","currency_code":"EUR","calling_code":"372"},"234":{"name":"Faroe Islands","fullname":"Faeroe Islands","iso_3166_2":"FO","iso_3166_3":"FRO","capital":"T\u00f3rshavn","citizenship":"Faeroese","currency":"Danish krone","currency_code":"DKK","calling_code":"298"},"238":{"name":"Falkland Islands (Malvinas)","fullname":"Falkland Islands","iso_3166_2":"FK","iso_3166_3":"FLK","capital":"Stanley","citizenship":"Falkland Islander","currency":"Falkland Islands pound","currency_code":"FKP","calling_code":"500"},"239":{"name":"South Georgia and the South Sandwich Islands","fullname":"South Georgia and the South Sandwich Islands","iso_3166_2":"GS","iso_3166_3":"SGS","capital":"King Edward Point (Grytviken)","citizenship":"of South Georgia and the South Sandwich Islands","currency":"","currency_code":"","calling_code":"44"},"242":{"name":"Fiji","fullname":"Republic of Fiji","iso_3166_2":"FJ","iso_3166_3":"FJI","capital":"Suva","citizenship":"Fijian","currency":"Fiji dollar","currency_code":"FJD","calling_code":"679"},"246":{"name":"Finland","fullname":"Republic of Finland","iso_3166_2":"FI","iso_3166_3":"FIN","capital":"Helsinki","citizenship":"Finnish","currency":"euro","currency_code":"EUR","calling_code":"358"},"248":{"name":"\u00c5land Islands","fullname":"\u00c5land Islands","iso_3166_2":"AX","iso_3166_3":"ALA","capital":"Mariehamn","citizenship":"\u00c5land Islander","currency":"euro","currency_code":"EUR","calling_code":"358"},"250":{"name":"France","fullname":"French Republic","iso_3166_2":"FR","iso_3166_3":"FRA","capital":"Paris","citizenship":"French","currency":"euro","currency_code":"EUR","calling_code":"33"},"254":{"name":"French Guiana","fullname":"French Guiana","iso_3166_2":"GF","iso_3166_3":"GUF","capital":"Cayenne","citizenship":"Guianese","currency":"euro","currency_code":"EUR","calling_code":"594"},"258":{"name":"French Polynesia","fullname":"French Polynesia","iso_3166_2":"PF","iso_3166_3":"PYF","capital":"Papeete","citizenship":"Polynesian","currency":"CFP franc","currency_code":"XPF","calling_code":"689"},"260":{"name":"French Southern Territories","fullname":"French Southern and Antarctic Lands","iso_3166_2":"TF","iso_3166_3":"ATF","capital":"Port-aux-Francais","citizenship":"of French Southern and Antarctic Lands","currency":"euro","currency_code":"EUR","calling_code":"33"},"262":{"name":"Djibouti","fullname":"Republic of Djibouti","iso_3166_2":"DJ","iso_3166_3":"DJI","capital":"Djibouti","citizenship":"Djiboutian","currency":"Djibouti franc","currency_code":"DJF","calling_code":"253"},"266":{"name":"Gabon","fullname":"Gabonese Republic","iso_3166_2":"GA","iso_3166_3":"GAB","capital":"Libreville","citizenship":"Gabonese","currency":"CFA franc (BEAC)","currency_code":"XAF","calling_code":"241"},"268":{"name":"Georgia","fullname":"Georgia","iso_3166_2":"GE","iso_3166_3":"GEO","capital":"Tbilisi","citizenship":"Georgian","currency":"lari","currency_code":"GEL","calling_code":"995"},"270":{"name":"Gambia","fullname":"Republic of the Gambia","iso_3166_2":"GM","iso_3166_3":"GMB","capital":"Banjul","citizenship":"Gambian","currency":"dalasi","currency_code":"GMD","calling_code":"220"},"275":{"name":"Palestinian Territory, Occupied","fullname":null,"iso_3166_2":"PS","iso_3166_3":"PSE","capital":null,"citizenship":"Palisitnean","currency":null,"currency_code":null,"calling_code":"970"},"276":{"name":"Germany","fullname":"Federal Republic of Germany","iso_3166_2":"DE","iso_3166_3":"DEU","capital":"Berlin","citizenship":"German","currency":"euro","currency_code":"EUR","calling_code":"49"},"288":{"name":"Ghana","fullname":"Republic of Ghana","iso_3166_2":"GH","iso_3166_3":"GHA","capital":"Accra","citizenship":"Ghanaian","currency":"Ghana cedi","currency_code":"GHS","calling_code":"233"},"292":{"name":"Gibraltar","fullname":"Gibraltar","iso_3166_2":"GI","iso_3166_3":"GIB","capital":"Gibraltar","citizenship":"Gibraltarian","currency":"Gibraltar pound","currency_code":"GIP","calling_code":"350"},"296":{"name":"Kiribati","fullname":"Republic of Kiribati","iso_3166_2":"KI","iso_3166_3":"KIR","capital":"Tarawa","citizenship":"Kiribatian","currency":"Australian dollar","currency_code":"AUD","calling_code":"686"},"300":{"name":"Greece","fullname":"Hellenic Republic","iso_3166_2":"GR","iso_3166_3":"GRC","capital":"Athens","citizenship":"Greek","currency":"euro","currency_code":"EUR","calling_code":"30"},"304":{"name":"Greenland","fullname":"Greenland","iso_3166_2":"GL","iso_3166_3":"GRL","capital":"Nuuk","citizenship":"Greenlander","currency":"Danish krone","currency_code":"DKK","calling_code":"299"},"308":{"name":"Grenada","fullname":"Grenada","iso_3166_2":"GD","iso_3166_3":"GRD","capital":"St George\u2019s","citizenship":"Grenadian","currency":"East Caribbean dollar","currency_code":"XCD","calling_code":"1"},"312":{"name":"Guadeloupe","fullname":"Guadeloupe","iso_3166_2":"GP","iso_3166_3":"GLP","capital":"Basse Terre","citizenship":"Guadeloupean","currency":"euro","currency_code":"EUR ","calling_code":"590"},"316":{"name":"Guam","fullname":"Territory of Guam","iso_3166_2":"GU","iso_3166_3":"GUM","capital":"Aga\u00f1a (Hag\u00e5t\u00f1a)","citizenship":"Guamanian","currency":"US dollar","currency_code":"USD","calling_code":"1"},"320":{"name":"Guatemala","fullname":"Republic of Guatemala","iso_3166_2":"GT","iso_3166_3":"GTM","capital":"Guatemala City","citizenship":"Guatemalan","currency":"quetzal (pl. quetzales)","currency_code":"GTQ","calling_code":"502"},"324":{"name":"Guinea","fullname":"Republic of Guinea","iso_3166_2":"GN","iso_3166_3":"GIN","capital":"Conakry","citizenship":"Guinean","currency":"Guinean franc","currency_code":"GNF","calling_code":"224"},"328":{"name":"Guyana","fullname":"Cooperative Republic of Guyana","iso_3166_2":"GY","iso_3166_3":"GUY","capital":"Georgetown","citizenship":"Guyanese","currency":"Guyana dollar","currency_code":"GYD","calling_code":"592"},"332":{"name":"Haiti","fullname":"Republic of Haiti","iso_3166_2":"HT","iso_3166_3":"HTI","capital":"Port-au-Prince","citizenship":"Haitian","currency":"gourde","currency_code":"HTG","calling_code":"509"},"334":{"name":"Heard Island and McDonald Islands","fullname":"Territory of Heard Island and McDonald Islands","iso_3166_2":"HM","iso_3166_3":"HMD","capital":"Territory of Heard Island and McDonald Islands","citizenship":"of Territory of Heard Island and McDonald Islands","currency":"","currency_code":"","calling_code":"61"},"336":{"name":"Holy See (Vatican City State)","fullname":"the Holy See\/ Vatican City State","iso_3166_2":"VA","iso_3166_3":"VAT","capital":"Vatican City","citizenship":"of the Holy See\/of the Vatican","currency":"euro","currency_code":"EUR","calling_code":"39"},"340":{"name":"Honduras","fullname":"Republic of Honduras","iso_3166_2":"HN","iso_3166_3":"HND","capital":"Tegucigalpa","citizenship":"Honduran","currency":"lempira","currency_code":"HNL","calling_code":"504"},"344":{"name":"Hong Kong","fullname":"Hong Kong Special Administrative Region of the People\u2019s Republic of China (HK2)","iso_3166_2":"HK","iso_3166_3":"HKG","capital":"(HK3)","citizenship":"Hong Kong Chinese","currency":"Hong Kong dollar","currency_code":"HKD","calling_code":"852"},"348":{"name":"Hungary","fullname":"Republic of Hungary","iso_3166_2":"HU","iso_3166_3":"HUN","capital":"Budapest","citizenship":"Hungarian","currency":"forint","currency_code":"HUF","calling_code":"36"},"352":{"name":"Iceland","fullname":"Republic of Iceland","iso_3166_2":"IS","iso_3166_3":"ISL","capital":"Reykjavik","citizenship":"Icelander","currency":"kr\u00f3na (pl. kr\u00f3nur)","currency_code":"ISK","calling_code":"354"},"356":{"name":"India","fullname":"Republic of India","iso_3166_2":"IN","iso_3166_3":"IND","capital":"New Delhi","citizenship":"Indian","currency":"Indian rupee","currency_code":"INR","calling_code":"91"},"360":{"name":"Indonesia","fullname":"Republic of Indonesia","iso_3166_2":"ID","iso_3166_3":"IDN","capital":"Jakarta","citizenship":"Indonesian","currency":"Indonesian rupiah","currency_code":"IDR","calling_code":"62"},"364":{"name":"Iran, Islamic Republic of","fullname":"Islamic Republic of Iran","iso_3166_2":"IR","iso_3166_3":"IRN","capital":"Tehran","citizenship":"Iranian","currency":"Iranian rial","currency_code":"IRR","calling_code":"98"},"368":{"name":"Iraq","fullname":"Republic of Iraq","iso_3166_2":"IQ","iso_3166_3":"IRQ","capital":"Baghdad","citizenship":"Iraqi","currency":"Iraqi dinar","currency_code":"IQD","calling_code":"964"},"372":{"name":"Ireland","fullname":"Ireland (IE1)","iso_3166_2":"IE","iso_3166_3":"IRL","capital":"Dublin","citizenship":"Irish","currency":"euro","currency_code":"EUR","calling_code":"353"},"376":{"name":"Israel","fullname":"State of Israel","iso_3166_2":"IL","iso_3166_3":"ISR","capital":"(IL1)","citizenship":"Israeli","currency":"shekel","currency_code":"ILS","calling_code":"972"},"380":{"name":"Italy","fullname":"Italian Republic","iso_3166_2":"IT","iso_3166_3":"ITA","capital":"Rome","citizenship":"Italian","currency":"euro","currency_code":"EUR","calling_code":"39"},"384":{"name":"C\u00f4te d'Ivoire","fullname":"Republic of C\u00f4te d\u2019Ivoire","iso_3166_2":"CI","iso_3166_3":"CIV","capital":"Yamoussoukro (CI1)","citizenship":"Ivorian","currency":"CFA franc (BCEAO)","currency_code":"XOF","calling_code":"225"},"388":{"name":"Jamaica","fullname":"Jamaica","iso_3166_2":"JM","iso_3166_3":"JAM","capital":"Kingston","citizenship":"Jamaican","currency":"Jamaica dollar","currency_code":"JMD","calling_code":"1"},"392":{"name":"Japan","fullname":"Japan","iso_3166_2":"JP","iso_3166_3":"JPN","capital":"Tokyo","citizenship":"Japanese","currency":"yen","currency_code":"JPY","calling_code":"81"},"398":{"name":"Kazakhstan","fullname":"Republic of Kazakhstan","iso_3166_2":"KZ","iso_3166_3":"KAZ","capital":"Astana","citizenship":"Kazakh","currency":"tenge","currency_code":"KZT","calling_code":"7"},"400":{"name":"Jordan","fullname":"Hashemite Kingdom of Jordan","iso_3166_2":"JO","iso_3166_3":"JOR","capital":"Amman","citizenship":"Jordanian","currency":"Jordanian dinar","currency_code":"JOD","calling_code":"962"},"404":{"name":"Kenya","fullname":"Republic of Kenya","iso_3166_2":"KE","iso_3166_3":"KEN","capital":"Nairobi","citizenship":"Kenyan","currency":"Kenyan shilling","currency_code":"KES","calling_code":"254"},"408":{"name":"Korea, Democratic People's Republic of","fullname":"Democratic People\u2019s Republic of Korea","iso_3166_2":"KP","iso_3166_3":"PRK","capital":"Pyongyang","citizenship":"North Korean","currency":"North Korean won","currency_code":"KPW","calling_code":"850"},"410":{"name":"Korea, Republic of","fullname":"Republic of Korea","iso_3166_2":"KR","iso_3166_3":"KOR","capital":"Seoul","citizenship":"South Korean","currency":"South Korean won","currency_code":"KRW","calling_code":"82"},"414":{"name":"Kuwait","fullname":"State of Kuwait","iso_3166_2":"KW","iso_3166_3":"KWT","capital":"Kuwait City","citizenship":"Kuwaiti","currency":"Kuwaiti dinar","currency_code":"KWD","calling_code":"965"},"417":{"name":"Kyrgyzstan","fullname":"Kyrgyz Republic","iso_3166_2":"KG","iso_3166_3":"KGZ","capital":"Bishkek","citizenship":"Kyrgyz","currency":"som","currency_code":"KGS","calling_code":"996"},"418":{"name":"Lao People's Democratic Republic","fullname":"Lao People\u2019s Democratic Republic","iso_3166_2":"LA","iso_3166_3":"LAO","capital":"Vientiane","citizenship":"Lao","currency":"kip","currency_code":"LAK","calling_code":"856"},"422":{"name":"Lebanon","fullname":"Lebanese Republic","iso_3166_2":"LB","iso_3166_3":"LBN","capital":"Beirut","citizenship":"Lebanese","currency":"Lebanese pound","currency_code":"LBP","calling_code":"961"},"426":{"name":"Lesotho","fullname":"Kingdom of Lesotho","iso_3166_2":"LS","iso_3166_3":"LSO","capital":"Maseru","citizenship":"Basotho","currency":"loti (pl. maloti)","currency_code":"LSL","calling_code":"266"},"428":{"name":"Latvia","fullname":"Republic of Latvia","iso_3166_2":"LV","iso_3166_3":"LVA","capital":"Riga","citizenship":"Latvian","currency":"lats (pl. lati)","currency_code":"LVL","calling_code":"371"},"430":{"name":"Liberia","fullname":"Republic of Liberia","iso_3166_2":"LR","iso_3166_3":"LBR","capital":"Monrovia","citizenship":"Liberian","currency":"Liberian dollar","currency_code":"LRD","calling_code":"231"},"434":{"name":"Libya","fullname":"Socialist People\u2019s Libyan Arab Jamahiriya","iso_3166_2":"LY","iso_3166_3":"LBY","capital":"Tripoli","citizenship":"Libyan","currency":"Libyan dinar","currency_code":"LYD","calling_code":"218"},"438":{"name":"Liechtenstein","fullname":"Principality of Liechtenstein","iso_3166_2":"LI","iso_3166_3":"LIE","capital":"Vaduz","citizenship":"Liechtensteiner","currency":"Swiss franc","currency_code":"CHF","calling_code":"423"},"440":{"name":"Lithuania","fullname":"Republic of Lithuania","iso_3166_2":"LT","iso_3166_3":"LTU","capital":"Vilnius","citizenship":"Lithuanian","currency":"litas (pl. litai)","currency_code":"LTL","calling_code":"370"},"442":{"name":"Luxembourg","fullname":"Grand Duchy of Luxembourg","iso_3166_2":"LU","iso_3166_3":"LUX","capital":"Luxembourg","citizenship":"Luxembourger","currency":"euro","currency_code":"EUR","calling_code":"352"},"446":{"name":"Macao","fullname":"Macao Special Administrative Region of the People\u2019s Republic of China (MO2)","iso_3166_2":"MO","iso_3166_3":"MAC","capital":"Macao (MO3)","citizenship":"Macanese","currency":"pataca","currency_code":"MOP","calling_code":"853"},"450":{"name":"Madagascar","fullname":"Republic of Madagascar","iso_3166_2":"MG","iso_3166_3":"MDG","capital":"Antananarivo","citizenship":"Malagasy","currency":"ariary","currency_code":"MGA","calling_code":"261"},"454":{"name":"Malawi","fullname":"Republic of Malawi","iso_3166_2":"MW","iso_3166_3":"MWI","capital":"Lilongwe","citizenship":"Malawian","currency":"Malawian kwacha","currency_code":"MWK","calling_code":"265"},"458":{"name":"Malaysia","fullname":"Malaysia","iso_3166_2":"MY","iso_3166_3":"MYS","capital":"Kuala Lumpur (MY1)","citizenship":"Malaysian","currency":"ringgit","currency_code":"MYR","calling_code":"60"},"462":{"name":"Maldives","fullname":"Republic of Maldives","iso_3166_2":"MV","iso_3166_3":"MDV","capital":"Mal\u00e9","citizenship":"Maldivian","currency":"rufiyaa","currency_code":"MVR","calling_code":"960"},"466":{"name":"Mali","fullname":"Republic of Mali","iso_3166_2":"ML","iso_3166_3":"MLI","capital":"Bamako","citizenship":"Malian","currency":"CFA franc (BCEAO)","currency_code":"XOF","calling_code":"223"},"470":{"name":"Malta","fullname":"Republic of Malta","iso_3166_2":"MT","iso_3166_3":"MLT","capital":"Valletta","citizenship":"Maltese","currency":"euro","currency_code":"EUR","calling_code":"356"},"474":{"name":"Martinique","fullname":"Martinique","iso_3166_2":"MQ","iso_3166_3":"MTQ","capital":"Fort-de-France","citizenship":"Martinican","currency":"euro","currency_code":"EUR","calling_code":"596"},"478":{"name":"Mauritania","fullname":"Islamic Republic of Mauritania","iso_3166_2":"MR","iso_3166_3":"MRT","capital":"Nouakchott","citizenship":"Mauritanian","currency":"ouguiya","currency_code":"MRO","calling_code":"222"},"480":{"name":"Mauritius","fullname":"Republic of Mauritius","iso_3166_2":"MU","iso_3166_3":"MUS","capital":"Port Louis","citizenship":"Mauritian","currency":"Mauritian rupee","currency_code":"MUR","calling_code":"230"},"484":{"name":"Mexico","fullname":"United Mexican States","iso_3166_2":"MX","iso_3166_3":"MEX","capital":"Mexico City","citizenship":"Mexican","currency":"Mexican peso","currency_code":"MXN","calling_code":"52"},"492":{"name":"Monaco","fullname":"Principality of Monaco","iso_3166_2":"MC","iso_3166_3":"MCO","capital":"Monaco","citizenship":"Monegasque","currency":"euro","currency_code":"EUR","calling_code":"377"},"496":{"name":"Mongolia","fullname":"Mongolia","iso_3166_2":"MN","iso_3166_3":"MNG","capital":"Ulan Bator","citizenship":"Mongolian","currency":"tugrik","currency_code":"MNT","calling_code":"976"},"498":{"name":"Moldova, Republic of","fullname":"Republic of Moldova","iso_3166_2":"MD","iso_3166_3":"MDA","capital":"Chisinau","citizenship":"Moldovan","currency":"Moldovan leu (pl. lei)","currency_code":"MDL","calling_code":"373"},"499":{"name":"Montenegro","fullname":"Montenegro","iso_3166_2":"ME","iso_3166_3":"MNE","capital":"Podgorica","citizenship":"Montenegrin","currency":"euro","currency_code":"EUR","calling_code":"382"},"500":{"name":"Montserrat","fullname":"Montserrat","iso_3166_2":"MS","iso_3166_3":"MSR","capital":"Plymouth (MS2)","citizenship":"Montserratian","currency":"East Caribbean dollar","currency_code":"XCD","calling_code":"1"},"504":{"name":"Morocco","fullname":"Kingdom of Morocco","iso_3166_2":"MA","iso_3166_3":"MAR","capital":"Rabat","citizenship":"Moroccan","currency":"Moroccan dirham","currency_code":"MAD","calling_code":"212"},"508":{"name":"Mozambique","fullname":"Republic of Mozambique","iso_3166_2":"MZ","iso_3166_3":"MOZ","capital":"Maputo","citizenship":"Mozambican","currency":"metical","currency_code":"MZN","calling_code":"258"},"512":{"name":"Oman","fullname":"Sultanate of Oman","iso_3166_2":"OM","iso_3166_3":"OMN","capital":"Muscat","citizenship":"Omani","currency":"Omani rial","currency_code":"OMR","calling_code":"968"},"516":{"name":"Namibia","fullname":"Republic of Namibia","iso_3166_2":"NA","iso_3166_3":"NAM","capital":"Windhoek","citizenship":"Namibian","currency":"Namibian dollar","currency_code":"NAD","calling_code":"264"},"520":{"name":"Nauru","fullname":"Republic of Nauru","iso_3166_2":"NR","iso_3166_3":"NRU","capital":"Yaren","citizenship":"Nauruan","currency":"Australian dollar","currency_code":"AUD","calling_code":"674"},"524":{"name":"Nepal","fullname":"Nepal","iso_3166_2":"NP","iso_3166_3":"NPL","capital":"Kathmandu","citizenship":"Nepalese","currency":"Nepalese rupee","currency_code":"NPR","calling_code":"977"},"528":{"name":"Netherlands","fullname":"Kingdom of the Netherlands","iso_3166_2":"NL","iso_3166_3":"NLD","capital":"Amsterdam (NL2)","citizenship":"Dutch","currency":"euro","currency_code":"EUR","calling_code":"31"},"531":{"name":"Cura\u00e7ao","fullname":"Cura\u00e7ao","iso_3166_2":"CW","iso_3166_3":"CUW","capital":"Willemstad","citizenship":"Cura\u00e7aoan","currency":"Netherlands Antillean guilder (CW1)","currency_code":"ANG","calling_code":"599"},"533":{"name":"Aruba","fullname":"Aruba","iso_3166_2":"AW","iso_3166_3":"ABW","capital":"Oranjestad","citizenship":"Aruban","currency":"Aruban guilder","currency_code":"AWG","calling_code":"297"},"534":{"name":"Sint Maarten (Dutch part)","fullname":"Sint Maarten","iso_3166_2":"SX","iso_3166_3":"SXM","capital":"Philipsburg","citizenship":"Sint Maartener","currency":"Netherlands Antillean guilder (SX1)","currency_code":"ANG","calling_code":"721"},"535":{"name":"Bonaire, Sint Eustatius and Saba","fullname":null,"iso_3166_2":"BQ","iso_3166_3":"BES","capital":null,"citizenship":"of Bonaire, Sint Eustatius and Saba","currency":"US dollar","currency_code":"USD","calling_code":"599"},"540":{"name":"New Caledonia","fullname":"New Caledonia","iso_3166_2":"NC","iso_3166_3":"NCL","capital":"Noum\u00e9a","citizenship":"New Caledonian","currency":"CFP franc","currency_code":"XPF","calling_code":"687"},"548":{"name":"Vanuatu","fullname":"Republic of Vanuatu","iso_3166_2":"VU","iso_3166_3":"VUT","capital":"Port Vila","citizenship":"Vanuatuan","currency":"vatu","currency_code":"VUV","calling_code":"678"},"554":{"name":"New Zealand","fullname":"New Zealand","iso_3166_2":"NZ","iso_3166_3":"NZL","capital":"Wellington","citizenship":"New Zealander","currency":"New Zealand dollar","currency_code":"NZD","calling_code":"64"},"558":{"name":"Nicaragua","fullname":"Republic of Nicaragua","iso_3166_2":"NI","iso_3166_3":"NIC","capital":"Managua","citizenship":"Nicaraguan","currency":"c\u00f3rdoba oro","currency_code":"NIO","calling_code":"505"},"562":{"name":"Niger","fullname":"Republic of Niger","iso_3166_2":"NE","iso_3166_3":"NER","capital":"Niamey","citizenship":"Nigerien","currency":"CFA franc (BCEAO)","currency_code":"XOF","calling_code":"227"},"566":{"name":"Nigeria","fullname":"Federal Republic of Nigeria","iso_3166_2":"NG","iso_3166_3":"NGA","capital":"Abuja","citizenship":"Nigerian","currency":"naira","currency_code":"NGN","calling_code":"234"},"570":{"name":"Niue","fullname":"Niue","iso_3166_2":"NU","iso_3166_3":"NIU","capital":"Alofi","citizenship":"Niuean","currency":"New Zealand dollar","currency_code":"NZD","calling_code":"683"},"574":{"name":"Norfolk Island","fullname":"Territory of Norfolk Island","iso_3166_2":"NF","iso_3166_3":"NFK","capital":"Kingston","citizenship":"Norfolk Islander","currency":"Australian dollar","currency_code":"AUD","calling_code":"672"},"578":{"name":"Norway","fullname":"Kingdom of Norway","iso_3166_2":"NO","iso_3166_3":"NOR","capital":"Oslo","citizenship":"Norwegian","currency":"Norwegian krone (pl. kroner)","currency_code":"NOK","calling_code":"47"},"580":{"name":"Northern Mariana Islands","fullname":"Commonwealth of the Northern Mariana Islands","iso_3166_2":"MP","iso_3166_3":"MNP","capital":"Saipan","citizenship":"Northern Mariana Islander","currency":"US dollar","currency_code":"USD","calling_code":"1"},"581":{"name":"United States Minor Outlying Islands","fullname":"United States Minor Outlying Islands","iso_3166_2":"UM","iso_3166_3":"UMI","capital":"United States Minor Outlying Islands","citizenship":"of United States Minor Outlying Islands","currency":"US dollar","currency_code":"USD","calling_code":"1"},"583":{"name":"Micronesia, Federated States of","fullname":"Federated States of Micronesia","iso_3166_2":"FM","iso_3166_3":"FSM","capital":"Palikir","citizenship":"Micronesian","currency":"US dollar","currency_code":"USD","calling_code":"691"},"584":{"name":"Marshall Islands","fullname":"Republic of the Marshall Islands","iso_3166_2":"MH","iso_3166_3":"MHL","capital":"Majuro","citizenship":"Marshallese","currency":"US dollar","currency_code":"USD","calling_code":"692"},"585":{"name":"Palau","fullname":"Republic of Palau","iso_3166_2":"PW","iso_3166_3":"PLW","capital":"Melekeok","citizenship":"Palauan","currency":"US dollar","currency_code":"USD","calling_code":"680"},"586":{"name":"Pakistan","fullname":"Islamic Republic of Pakistan","iso_3166_2":"PK","iso_3166_3":"PAK","capital":"Islamabad","citizenship":"Pakistani","currency":"Pakistani rupee","currency_code":"PKR","calling_code":"92"},"591":{"name":"Panama","fullname":"Republic of Panama","iso_3166_2":"PA","iso_3166_3":"PAN","capital":"Panama City","citizenship":"Panamanian","currency":"balboa","currency_code":"PAB","calling_code":"507"},"598":{"name":"Papua New Guinea","fullname":"Independent State of Papua New Guinea","iso_3166_2":"PG","iso_3166_3":"PNG","capital":"Port Moresby","citizenship":"Papua New Guinean","currency":"kina","currency_code":"PGK","calling_code":"675"},"600":{"name":"Paraguay","fullname":"Republic of Paraguay","iso_3166_2":"PY","iso_3166_3":"PRY","capital":"Asunci\u00f3n","citizenship":"Paraguayan","currency":"guaran\u00ed","currency_code":"PYG","calling_code":"595"},"604":{"name":"Peru","fullname":"Republic of Peru","iso_3166_2":"PE","iso_3166_3":"PER","capital":"Lima","citizenship":"Peruvian","currency":"new sol","currency_code":"PEN","calling_code":"51"},"608":{"name":"Philippines","fullname":"Republic of the Philippines","iso_3166_2":"PH","iso_3166_3":"PHL","capital":"Manila","citizenship":"Filipino","currency":"Philippine peso","currency_code":"PHP","calling_code":"63"},"612":{"name":"Pitcairn","fullname":"Pitcairn Islands","iso_3166_2":"PN","iso_3166_3":"PCN","capital":"Adamstown","citizenship":"Pitcairner","currency":"New Zealand dollar","currency_code":"NZD","calling_code":"649"},"616":{"name":"Poland","fullname":"Republic of Poland","iso_3166_2":"PL","iso_3166_3":"POL","capital":"Warsaw","citizenship":"Polish","currency":"zloty","currency_code":"PLN","calling_code":"48"},"620":{"name":"Portugal","fullname":"Portuguese Republic","iso_3166_2":"PT","iso_3166_3":"PRT","capital":"Lisbon","citizenship":"Portuguese","currency":"euro","currency_code":"EUR","calling_code":"351"},"624":{"name":"Guinea-Bissau","fullname":"Republic of Guinea-Bissau","iso_3166_2":"GW","iso_3166_3":"GNB","capital":"Bissau","citizenship":"Guinea-Bissau national","currency":"CFA franc (BCEAO)","currency_code":"XOF","calling_code":"245"},"626":{"name":"Timor-Leste","fullname":"Democratic Republic of East Timor","iso_3166_2":"TL","iso_3166_3":"TLS","capital":"Dili","citizenship":"East Timorese","currency":"US dollar","currency_code":"USD","calling_code":"670"},"630":{"name":"Puerto Rico","fullname":"Commonwealth of Puerto Rico","iso_3166_2":"PR","iso_3166_3":"PRI","capital":"San Juan","citizenship":"Puerto Rican","currency":"US dollar","currency_code":"USD","calling_code":"1"},"634":{"name":"Qatar","fullname":"State of Qatar","iso_3166_2":"QA","iso_3166_3":"QAT","capital":"Doha","citizenship":"Qatari","currency":"Qatari riyal","currency_code":"QAR","calling_code":"974"},"638":{"name":"R\u00e9union","fullname":"R\u00e9union","iso_3166_2":"RE","iso_3166_3":"REU","capital":"Saint-Denis","citizenship":"Reunionese","currency":"euro","currency_code":"EUR","calling_code":"262"},"642":{"name":"Romania","fullname":"Romania","iso_3166_2":"RO","iso_3166_3":"ROU","capital":"Bucharest","citizenship":"Romanian","currency":"Romanian leu (pl. lei)","currency_code":"RON","calling_code":"40"},"643":{"name":"Russian Federation","fullname":"Russian Federation","iso_3166_2":"RU","iso_3166_3":"RUS","capital":"Moscow","citizenship":"Russian","currency":"Russian rouble","currency_code":"RUB","calling_code":"7"},"646":{"name":"Rwanda","fullname":"Republic of Rwanda","iso_3166_2":"RW","iso_3166_3":"RWA","capital":"Kigali","citizenship":"Rwandan; Rwandese","currency":"Rwandese franc","currency_code":"RWF","calling_code":"250"},"652":{"name":"Saint Barth\u00e9lemy","fullname":"Collectivity of Saint Barth\u00e9lemy","iso_3166_2":"BL","iso_3166_3":"BLM","capital":"Gustavia","citizenship":"of Saint Barth\u00e9lemy","currency":"euro","currency_code":"EUR","calling_code":"590"},"654":{"name":"Saint Helena, Ascension and Tristan da Cunha","fullname":"Saint Helena, Ascension and Tristan da Cunha","iso_3166_2":"SH","iso_3166_3":"SHN","capital":"Jamestown","citizenship":"Saint Helenian","currency":"Saint Helena pound","currency_code":"SHP","calling_code":"290"},"659":{"name":"Saint Kitts and Nevis","fullname":"Federation of Saint Kitts and Nevis","iso_3166_2":"KN","iso_3166_3":"KNA","capital":"Basseterre","citizenship":"Kittsian; Nevisian","currency":"East Caribbean dollar","currency_code":"XCD","calling_code":"1"},"660":{"name":"Anguilla","fullname":"Anguilla","iso_3166_2":"AI","iso_3166_3":"AIA","capital":"The Valley","citizenship":"Anguillan","currency":"East Caribbean dollar","currency_code":"XCD","calling_code":"1"},"662":{"name":"Saint Lucia","fullname":"Saint Lucia","iso_3166_2":"LC","iso_3166_3":"LCA","capital":"Castries","citizenship":"Saint Lucian","currency":"East Caribbean dollar","currency_code":"XCD","calling_code":"1"},"663":{"name":"Saint Martin (French part)","fullname":"Collectivity of Saint Martin","iso_3166_2":"MF","iso_3166_3":"MAF","capital":"Marigot","citizenship":"of Saint Martin","currency":"euro","currency_code":"EUR","calling_code":"590"},"666":{"name":"Saint Pierre and Miquelon","fullname":"Territorial Collectivity of Saint Pierre and Miquelon","iso_3166_2":"PM","iso_3166_3":"SPM","capital":"Saint-Pierre","citizenship":"St-Pierrais; Miquelonnais","currency":"euro","currency_code":"EUR","calling_code":"508"},"670":{"name":"Saint Vincent and the Grenadines","fullname":"Saint Vincent and the Grenadines","iso_3166_2":"VC","iso_3166_3":"VCT","capital":"Kingstown","citizenship":"Vincentian","currency":"East Caribbean dollar","currency_code":"XCD","calling_code":"1"},"674":{"name":"San Marino","fullname":"Republic of San Marino","iso_3166_2":"SM","iso_3166_3":"SMR","capital":"San Marino","citizenship":"San Marinese","currency":"euro","currency_code":"EUR ","calling_code":"378"},"678":{"name":"Sao Tome and Principe","fullname":"Democratic Republic of S\u00e3o Tom\u00e9 and Pr\u00edncipe","iso_3166_2":"ST","iso_3166_3":"STP","capital":"S\u00e3o Tom\u00e9","citizenship":"S\u00e3o Tom\u00e9an","currency":"dobra","currency_code":"STD","calling_code":"239"},"682":{"name":"Saudi Arabia","fullname":"Kingdom of Saudi Arabia","iso_3166_2":"SA","iso_3166_3":"SAU","capital":"Riyadh","citizenship":"Saudi Arabian","currency":"riyal","currency_code":"SAR","calling_code":"966"},"686":{"name":"Senegal","fullname":"Republic of Senegal","iso_3166_2":"SN","iso_3166_3":"SEN","capital":"Dakar","citizenship":"Senegalese","currency":"CFA franc (BCEAO)","currency_code":"XOF","calling_code":"221"},"688":{"name":"Serbia","fullname":"Republic of Serbia","iso_3166_2":"RS","iso_3166_3":"SRB","capital":"Belgrade","citizenship":"Serb","currency":"Serbian dinar","currency_code":"RSD","calling_code":"381"},"690":{"name":"Seychelles","fullname":"Republic of Seychelles","iso_3166_2":"SC","iso_3166_3":"SYC","capital":"Victoria","citizenship":"Seychellois","currency":"Seychelles rupee","currency_code":"SCR","calling_code":"248"},"694":{"name":"Sierra Leone","fullname":"Republic of Sierra Leone","iso_3166_2":"SL","iso_3166_3":"SLE","capital":"Freetown","citizenship":"Sierra Leonean","currency":"leone","currency_code":"SLL","calling_code":"232"},"702":{"name":"Singapore","fullname":"Republic of Singapore","iso_3166_2":"SG","iso_3166_3":"SGP","capital":"Singapore","citizenship":"Singaporean","currency":"Singapore dollar","currency_code":"SGD","calling_code":"65"},"703":{"name":"Slovakia","fullname":"Slovak Republic","iso_3166_2":"SK","iso_3166_3":"SVK","capital":"Bratislava","citizenship":"Slovak","currency":"euro","currency_code":"EUR","calling_code":"421"},"704":{"name":"Viet Nam","fullname":"Socialist Republic of Vietnam","iso_3166_2":"VN","iso_3166_3":"VNM","capital":"Hanoi","citizenship":"Vietnamese","currency":"dong","currency_code":"VND","calling_code":"84"},"705":{"name":"Slovenia","fullname":"Republic of Slovenia","iso_3166_2":"SI","iso_3166_3":"SVN","capital":"Ljubljana","citizenship":"Slovene","currency":"euro","currency_code":"EUR","calling_code":"386"},"706":{"name":"Somalia","fullname":"Somali Republic","iso_3166_2":"SO","iso_3166_3":"SOM","capital":"Mogadishu","citizenship":"Somali","currency":"Somali shilling","currency_code":"SOS","calling_code":"252"},"710":{"name":"South Africa","fullname":"Republic of South Africa","iso_3166_2":"ZA","iso_3166_3":"ZAF","capital":"Pretoria (ZA1)","citizenship":"South African","currency":"rand","currency_code":"ZAR","calling_code":"27"},"716":{"name":"Zimbabwe","fullname":"Republic of Zimbabwe","iso_3166_2":"ZW","iso_3166_3":"ZWE","capital":"Harare","citizenship":"Zimbabwean","currency":"Zimbabwe dollar (ZW1)","currency_code":"ZWL","calling_code":"263"},"724":{"name":"Spain","fullname":"Kingdom of Spain","iso_3166_2":"ES","iso_3166_3":"ESP","capital":"Madrid","citizenship":"Spaniard","currency":"euro","currency_code":"EUR","calling_code":"34"},"728":{"name":"South Sudan","fullname":"Republic of South Sudan","iso_3166_2":"SS","iso_3166_3":"SSD","capital":"Juba","citizenship":"South Sudanese","currency":"South Sudanese pound","currency_code":"SSP","calling_code":"211"},"729":{"name":"Sudan","fullname":"Republic of the Sudan","iso_3166_2":"SD","iso_3166_3":"SDN","capital":"Khartoum","citizenship":"Sudanese","currency":"Sudanese pound","currency_code":"SDG","calling_code":"249"},"732":{"name":"Western Sahara","fullname":"Western Sahara","iso_3166_2":"EH","iso_3166_3":"ESH","capital":"Al aaiun","citizenship":"Sahrawi","currency":"Moroccan dirham","currency_code":"MAD","calling_code":"212"},"740":{"name":"Suriname","fullname":"Republic of Suriname","iso_3166_2":"SR","iso_3166_3":"SUR","capital":"Paramaribo","citizenship":"Surinamese","currency":"Surinamese dollar","currency_code":"SRD","calling_code":"597"},"744":{"name":"Svalbard and Jan Mayen","fullname":"Svalbard and Jan Mayen","iso_3166_2":"SJ","iso_3166_3":"SJM","capital":"Longyearbyen","citizenship":"of Svalbard","currency":"Norwegian krone (pl. kroner)","currency_code":"NOK","calling_code":"47"},"748":{"name":"Swaziland","fullname":"Kingdom of Swaziland","iso_3166_2":"SZ","iso_3166_3":"SWZ","capital":"Mbabane","citizenship":"Swazi","currency":"lilangeni","currency_code":"SZL","calling_code":"268"},"752":{"name":"Sweden","fullname":"Kingdom of Sweden","iso_3166_2":"SE","iso_3166_3":"SWE","capital":"Stockholm","citizenship":"Swedish","currency":"krona (pl. kronor)","currency_code":"SEK","calling_code":"46"},"756":{"name":"Switzerland","fullname":"Swiss Confederation","iso_3166_2":"CH","iso_3166_3":"CHE","capital":"Berne","citizenship":"Swiss","currency":"Swiss franc","currency_code":"CHF","calling_code":"41"},"760":{"name":"Syrian Arab Republic","fullname":"Syrian Arab Republic","iso_3166_2":"SY","iso_3166_3":"SYR","capital":"Damascus","citizenship":"Syrian","currency":"Syrian pound","currency_code":"SYP","calling_code":"963"},"762":{"name":"Tajikistan","fullname":"Republic of Tajikistan","iso_3166_2":"TJ","iso_3166_3":"TJK","capital":"Dushanbe","citizenship":"Tajik","currency":"somoni","currency_code":"TJS","calling_code":"992"},"764":{"name":"Thailand","fullname":"Kingdom of Thailand","iso_3166_2":"TH","iso_3166_3":"THA","capital":"Bangkok","citizenship":"Thai","currency":"baht","currency_code":"THB","calling_code":"66"},"768":{"name":"Togo","fullname":"Togolese Republic","iso_3166_2":"TG","iso_3166_3":"TGO","capital":"Lom\u00e9","citizenship":"Togolese","currency":"CFA franc (BCEAO)","currency_code":"XOF","calling_code":"228"},"772":{"name":"Tokelau","fullname":"Tokelau","iso_3166_2":"TK","iso_3166_3":"TKL","capital":"(TK2)","citizenship":"Tokelauan","currency":"New Zealand dollar","currency_code":"NZD","calling_code":"690"},"776":{"name":"Tonga","fullname":"Kingdom of Tonga","iso_3166_2":"TO","iso_3166_3":"TON","capital":"Nuku\u2019alofa","citizenship":"Tongan","currency":"pa\u2019anga","currency_code":"TOP","calling_code":"676"},"780":{"name":"Trinidad and Tobago","fullname":"Republic of Trinidad and Tobago","iso_3166_2":"TT","iso_3166_3":"TTO","capital":"Port of Spain","citizenship":"Trinidadian; Tobagonian","currency":"Trinidad and Tobago dollar","currency_code":"TTD","calling_code":"1"},"784":{"name":"United Arab Emirates","fullname":"United Arab Emirates","iso_3166_2":"AE","iso_3166_3":"ARE","capital":"Abu Dhabi","citizenship":"Emirian","currency":"UAE dirham","currency_code":"AED","calling_code":"971"},"788":{"name":"Tunisia","fullname":"Republic of Tunisia","iso_3166_2":"TN","iso_3166_3":"TUN","capital":"Tunis","citizenship":"Tunisian","currency":"Tunisian dinar","currency_code":"TND","calling_code":"216"},"792":{"name":"Turkey","fullname":"Republic of Turkey","iso_3166_2":"TR","iso_3166_3":"TUR","capital":"Ankara","citizenship":"Turk","currency":"Turkish lira","currency_code":"TRY","calling_code":"90"},"795":{"name":"Turkmenistan","fullname":"Turkmenistan","iso_3166_2":"TM","iso_3166_3":"TKM","capital":"Ashgabat","citizenship":"Turkmen","currency":"Turkmen manat","currency_code":"TMT","calling_code":"993"},"796":{"name":"Turks and Caicos Islands","fullname":"Turks and Caicos Islands","iso_3166_2":"TC","iso_3166_3":"TCA","capital":"Cockburn Town","citizenship":"Turks and Caicos Islander","currency":"US dollar","currency_code":"USD","calling_code":"1"},"798":{"name":"Tuvalu","fullname":"Tuvalu","iso_3166_2":"TV","iso_3166_3":"TUV","capital":"Funafuti","citizenship":"Tuvaluan","currency":"Australian dollar","currency_code":"AUD","calling_code":"688"},"800":{"name":"Uganda","fullname":"Republic of Uganda","iso_3166_2":"UG","iso_3166_3":"UGA","capital":"Kampala","citizenship":"Ugandan","currency":"Uganda shilling","currency_code":"UGX","calling_code":"256"},"804":{"name":"Ukraine","fullname":"Ukraine","iso_3166_2":"UA","iso_3166_3":"UKR","capital":"Kiev","citizenship":"Ukrainian","currency":"hryvnia","currency_code":"UAH","calling_code":"380"},"807":{"name":"Macedonia, the former Yugoslav Republic of","fullname":"the former Yugoslav Republic of Macedonia","iso_3166_2":"MK","iso_3166_3":"MKD","capital":"Skopje","citizenship":"of the former Yugoslav Republic of Macedonia","currency":"denar (pl. denars)","currency_code":"MKD","calling_code":"389"},"818":{"name":"Egypt","fullname":"Arab Republic of Egypt","iso_3166_2":"EG","iso_3166_3":"EGY","capital":"Cairo","citizenship":"Egyptian","currency":"Egyptian pound","currency_code":"EGP","calling_code":"20"},"826":{"name":"United Kingdom","fullname":"United Kingdom of Great Britain and Northern Ireland","iso_3166_2":"GB","iso_3166_3":"GBR","capital":"London","citizenship":"British","currency":"pound sterling","currency_code":"GBP","calling_code":"44"},"831":{"name":"Guernsey","fullname":"Bailiwick of Guernsey","iso_3166_2":"GG","iso_3166_3":"GGY","capital":"St Peter Port","citizenship":"of Guernsey","currency":"Guernsey pound (GG2)","currency_code":"GGP (GG2)","calling_code":"44"},"832":{"name":"Jersey","fullname":"Bailiwick of Jersey","iso_3166_2":"JE","iso_3166_3":"JEY","capital":"St Helier","citizenship":"of Jersey","currency":"Jersey pound (JE2)","currency_code":"JEP (JE2)","calling_code":"44"},"833":{"name":"Isle of Man","fullname":"Isle of Man","iso_3166_2":"IM","iso_3166_3":"IMN","capital":"Douglas","citizenship":"Manxman; Manxwoman","currency":"Manx pound (IM2)","currency_code":"IMP (IM2)","calling_code":"44"},"834":{"name":"Tanzania, United Republic of","fullname":"United Republic of Tanzania","iso_3166_2":"TZ","iso_3166_3":"TZA","capital":"Dodoma (TZ1)","citizenship":"Tanzanian","currency":"Tanzanian shilling","currency_code":"TZS","calling_code":"255"},"840":{"name":"United States","fullname":"United States of America","iso_3166_2":"US","iso_3166_3":"USA","capital":"Washington DC","citizenship":"American","currency":"US dollar","currency_code":"USD","calling_code":"1"},"850":{"name":"Virgin Islands, U.S.","fullname":"United States Virgin Islands","iso_3166_2":"VI","iso_3166_3":"VIR","capital":"Charlotte Amalie","citizenship":"US Virgin Islander","currency":"US dollar","currency_code":"USD","calling_code":"1"},"854":{"name":"Burkina Faso","fullname":"Burkina Faso","iso_3166_2":"BF","iso_3166_3":"BFA","capital":"Ouagadougou","citizenship":"Burkinabe","currency":"CFA franc (BCEAO)","currency_code":"XOF","calling_code":"226"},"858":{"name":"Uruguay","fullname":"Eastern Republic of Uruguay","iso_3166_2":"UY","iso_3166_3":"URY","capital":"Montevideo","citizenship":"Uruguayan","currency":"Uruguayan peso","currency_code":"UYU","calling_code":"598"},"860":{"name":"Uzbekistan","fullname":"Republic of Uzbekistan","iso_3166_2":"UZ","iso_3166_3":"UZB","capital":"Tashkent","citizenship":"Uzbek","currency":"sum","currency_code":"UZS","calling_code":"998"},"862":{"name":"Venezuela, Bolivarian Republic of","fullname":"Bolivarian Republic of Venezuela","iso_3166_2":"VE","iso_3166_3":"VEN","capital":"Caracas","citizenship":"Venezuelan","currency":"bol\u00edvar fuerte (pl. bol\u00edvares fuertes)","currency_code":"VEF","calling_code":"58"},"876":{"name":"Wallis and Futuna","fullname":"Wallis and Futuna","iso_3166_2":"WF","iso_3166_3":"WLF","capital":"Mata-Utu","citizenship":"Wallisian; Futunan; Wallis and Futuna Islander","currency":"CFP franc","currency_code":"XPF","calling_code":"681"},"882":{"name":"Samoa","fullname":"Independent State of Samoa","iso_3166_2":"WS","iso_3166_3":"WSM","capital":"Apia","citizenship":"Samoan","currency":"tala","currency_code":"WST","calling_code":"685"},"887":{"name":"Yemen","fullname":"Republic of Yemen","iso_3166_2":"YE","iso_3166_3":"YEM","capital":"San\u2019a","citizenship":"Yemenite","currency":"Yemeni rial","currency_code":"YER","calling_code":"967"},"894":{"name":"Zambia","fullname":"Republic of Zambia","iso_3166_2":"ZM","iso_3166_3":"ZMB","capital":"Lusaka","citizenship":"Zambian","currency":"Zambian kwacha","currency_code":"ZMW","calling_code":"260"}}